OBJECT_NAME,OBJECT_ID,EPOCH,MEAN_MOTION,ECCENTRICITY,INCLINATION,RA_OF_ASC_NODE,ARG_OF_PERICENTER,MEAN_ANOMALY,EPHEMERIS_TYPE,CLASSIFICATION_TYPE,NORAD_CAT_ID,ELEMENT_SET_NO,REV_AT_EPOCH,BSTAR,MEAN_MOTION_DOT,MEAN_MOTION_DDOT
TJS-14,2025-017A,2026-07-12T15:18:34.069248,1.00274712,.00018288,0.7272,297.4972,294.6080,306.4920,0,U,62804,999,552,0,.117E-5,0
SPAINSAT NG I,2025-021A,2026-07-12T11:56:09.033792,1.00270105,.00002123,0.0163,20.9349,239.2149,238.2558,0,U,62852,999,424,0,.152E-5,0
QZS-6 (MICHIBIKI-6),2025-023A,2026-07-12T12:24:16.445664,1.00267666,.00017823,0.0155,335.7722,156.3397,74.8283,0,U,62876,999,520,0,-.231E-5,0
ZHONGXING-10R,2025-036A,2026-07-12T11:40:38.587008,1.00273518,.00041449,0.0484,218.6787,288.8492,68.5114,0,U,63075,999,521,0,-.351E-5,0
TJS-15,2025-045A,2026-07-11T18:18:49.900320,1.00270450,.0003375,0.3042,85.6792,295.3179,277.7466,0,U,63157,999,500,0,-.26E-5,0
TIANLIAN 2-04,2025-062A,2026-07-12T15:36:08.092224,1.00269632,.00316101,4.3114,274.0734,9.3129,321.2048,0,U,63361,999,485,0,-.129E-5,0
TJS-16,2025-064A,2026-07-11T17:35:21.003072,1.00270846,.0002505,1.1587,81.3056,290.5537,342.2365,0,U,63397,999,463,0,-.102E-5,0
TJS-17,2025-073A,2026-07-11T17:29:07.202112,1.00270427,.0001016,1.1247,82.4832,303.4146,330.5242,0,U,63524,999,453,0,-.67E-6,0
TIANLIAN 2-05,2025-084A,2026-07-12T11:53:46.762368,1.00270163,.00025775,4.3893,279.5445,153.5996,56.0531,0,U,63662,999,463,0,.131E-5,0
TJS-19,2025-097A,2026-07-11T17:39:08.583264,1.00267494,.0003937,3.2466,317.8320,245.0343,132.7753,0,U,63924,999,439,0,-.268E-5,0
CHINASAT 3B,2025-106A,2026-07-12T14:18:24.835392,1.00271964,.0003906,0.0249,150.8331,353.9095,167.6683,0,U,64062,999,431,0,-.44E-6,0
SXM-10,2025-122A,2026-07-12T09:23:38.695776,1.00271039,.00017748,0.0169,39.3198,318.0582,317.6622,0,U,64290,999,393,0,-.15E-6,0
COSMOS 2589,2025-131A,2026-07-11T15:32:22.538112,1.00275380,.0002243,0.0469,103.6663,116.8157,40.1252,0,U,64467,999,380,0,-.286E-5,0
CHINASAT 9C,2025-132A,2026-07-12T12:27:58.032288,1.00269766,.00028745,0.0073,329.3728,144.4612,95.7739,0,U,64470,999,440,0,-.246E-5,0
MTG-S1,2025-143A,2026-07-12T08:22:34.121856,1.00272931,.00035025,0.5859,344.4073,262.0724,168.9803,0,U,64723,999,367,0,-.5E-7,0
DROR 1,2025-148A,2026-07-12T07:32:38.817024,1.00271469,.00019906,0.0504,264.8220,130.4162,4.1260,0,U,64784,999,354,0,-.32E-6,0
SHIYAN-29,2025-196A,2026-07-11T22:52:21.543168,1.00277241,.00134779,28.8476,18.2231,177.7067,172.2817,0,U,65486,999,312,0,-.282E-5,0
NUSANTARA LIMA (NUSANTARA 5),2025-205A,2026-07-12T11:40:38.587008,1.00270329,.00004944,0.0078,118.0916,89.7821,10.5114,0,U,65588,999,297,0,-.356E-5,0
TJS-20,2025-238A,2026-07-12T10:23:05.068320,1.00273949,.00042895,5.4148,299.4503,180.9942,28.0830,0,U,66142,999,258,0,.33E-6,0
CMS-03 (GSAT-7R),2025-249B,2026-07-12T12:09:07.789824,1.00271121,.00014511,0.0358,265.6045,173.1957,107.8514,0,U,66311,999,260,0,-.76E-6,0
VIASAT-3 F2,2025-261A,2026-07-12T06:58:38.648640,1.00270578,.00008821,0.0036,133.6656,92.1824,90.0296,0,U,66454,999,304,0,-.231E-5,0
SHIJIAN-28 (SJ-28),2025-277A,2026-07-12T11:40:38.587008,1.00268208,.00011728,4.4749,271.7314,22.6483,287.9943,0,U,66549,999,240,0,-.353E-5,0
TJS-22,2025-290A,2026-07-11T19:26:17.901888,1.00275095,.0002244,1.4700,286.9014,318.0620,42.8998,0,U,66990,999,227,0,-.2E-7,0
TJS-23,2025-306A,2026-07-12T12:46:34.165632,1.00274777,.0004982,5.5312,297.3541,192.6213,167.6210,0,U,67226,999,214,0,.26E-6,0
FENGYUN 4C,2025-312A,2026-07-11T19:19:22.008576,1.00270046,.00006325,0.0404,180.2327,36.6436,135.6736,0,U,67246,999,202,0,-.319E-5,0
SHIJIAN-29A (SJ-29A),2025-315A,2026-07-12T12:11:23.113824,1.00272057,.00048518,3.4597,94.5032,52.7567,39.1345,0,U,67302,999,187,0,-.7E-6,0
SHIJIAN-29B (SJ-29B),2025-315C,2026-07-12T12:11:23.112960,1.00272033,.00048285,3.4587,94.4967,52.8738,39.0686,0,U,67403,999,194,0,-.7E-6,0
ELEKTRO-L 5,2026-028A,2026-07-11T23:36:10.094688,1.00271978,.00020422,0.2116,323.0520,176.0597,220.8974,0,U,67756,999,150,0,-.94E-6,0
JAM-E JAM 1,2026-028B,2026-07-12T05:07:02.392032,1.00272256,.0001728,0.2122,311.3933,321.8798,127.6037,0,U,67757,999,137,0,.158E-5,0
ECHOSTAR 25,2026-045A,2026-07-12T07:51:22.112064,1.00266096,.00015542,0.0280,59.8250,62.9583,175.2881,0,U,68126,999,124,0,0,0
TJS-24,2026-116A,2026-07-12T15:17:15.814176,1.00270424,.00003658,0.0710,95.7002,129.4488,24.9941,0,U,69235,999,48,0,-.231E-5,0
