TJS-14                  
1 62804U 25017A   26193.63789432  .00000117  00000+0  00000+0 0  9995
2 62804   0.7272 297.4972 0001828 294.6080 306.4920  1.00274712  5528
SPAINSAT NG I           
1 62852U 25021A   26193.49732678  .00000152  00000+0  00000+0 0  9996
2 62852   0.0163  20.9349 0000212 239.2149 238.2558  1.00270105  4246
QZS-6 (MICHIBIKI-6)     
1 62876U 25023A   26193.51685701 -.00000231  00000+0  00000+0 0  9990
2 62876   0.0155 335.7722 0001782 156.3397  74.8283  1.00267666  5206
ZHONGXING-10R           
1 63075U 25036A   26193.48655772 -.00000351  00000+0  00000+0 0  9990
2 63075   0.0484 218.6787 0004144 288.8492  68.5114  1.00273518  5212
TJS-15                  
1 63157U 25045A   26192.76307755 -.00000260  00000+0  00000+0 0  9995
2 63157   0.3042  85.6792 0003375 295.3179 277.7466  1.00270450  5007
TIANLIAN 2-04           
1 63361U 25062A   26193.65009366 -.00000129  00000+0  00000+0 0  9991
2 63361   4.3114 274.0734 0031610   9.3129 321.2048  1.00269632  4852
TJS-16                  
1 63397U 25064A   26192.73288198 -.00000102  00000+0  00000+0 0  9993
2 63397   1.1587  81.3056 0002505 290.5537 342.2365  1.00270846  4634
TJS-17                  
1 63524U 25073A   26192.72855558 -.00000067  00000+0  00000+0 0  9994
2 63524   1.1247  82.4832 0001016 303.4146 330.5242  1.00270427  4537
TIANLIAN 2-05           
1 63662U 25084A   26193.49568012  .00000131  00000+0  00000+0 0  9991
2 63662   4.3893 279.5445 0002577 153.5996  56.0531  1.00270163  4630
TJS-19                  
1 63924U 25097A   26192.73551601 -.00000268  00000+0  00000+0 0  9990
2 63924   3.2466 317.8320 0003937 245.0343 132.7753  1.00267494  4391
CHINASAT 3B             
1 64062U 25106A   26193.59612078 -.00000044  00000+0  00000+0 0  9998
2 64062   0.0249 150.8331 0003906 353.9095 167.6683  1.00271964  4313
SXM-10                  
1 64290U 25122A   26193.39142009 -.00000015  00000+0  00000+0 0  9997
2 64290   0.0169  39.3198 0001774 318.0582 317.6622  1.00271039  3933
COSMOS 2589             
1 64467U 25131A   26192.64748308 -.00000286  00000+0  00000+0 0  9994
2 64467   0.0469 103.6663 0002243 116.8157  40.1252  1.00275380  3804
CHINASAT 9C             
1 64470U 25132A   26193.51942167 -.00000246  00000+0  00000+0 0  9991
2 64470   0.0073 329.3728 0002874 144.4612  95.7739  1.00269766  4405
MTG-S1                  
1 64723U 25143A   26193.34900604 -.00000005  00000+0  00000+0 0  9998
2 64723   0.5859 344.4073 0003502 262.0724 168.9803  1.00272931  3675
DROR 1                  
1 64784U 25148A   26193.31433816 -.00000032  00000+0  00000+0 0  9993
2 64784   0.0504 264.8220 0001990 130.4162   4.1260  1.00271469  3545
SHIYAN-29               
1 65486U 25196A   26192.95302712 -.00000282  00000+0  00000+0 0  9992
2 65486  28.8476  18.2231 0013477 177.7067 172.2817  1.00277241  3128
NUSANTARA LIMA (NUSANT*)
1 65588U 25205A   26193.48655772 -.00000356  00000+0  00000+0 0  9994
2 65588   0.0078 118.0916 0000494  89.7821  10.5114  1.00270329  2971
TJS-20                  
1 66142U 25238A   26193.43269755  .00000033  00000+0  00000+0 0  9995
2 66142   5.4148 299.4503 0004289 180.9942  28.0830  1.00273949  2582
CMS-03 (GSAT-7R)        
1 66311U 25249B   26193.50634016 -.00000076  00000+0  00000+0 0  9997
2 66311   0.0358 265.6045 0001451 173.1957 107.8514  1.00271121  2606
VIASAT-3 F2             
1 66454U 25261A   26193.29072510 -.00000231  00000+0  00000+0 0  9993
2 66454   0.0036 133.6656 0000882  92.1824  90.0296  1.00270578  3043
SHIJIAN-28 (SJ-28)      
1 66549U 25277A   26193.48655772 -.00000353  00000+0  00000+0 0  9998
2 66549   4.4749 271.7314 0001172  22.6483 287.9943  1.00268208  2406
TJS-22                  
1 66990U 25290A   26192.80992942 -.00000002  00000+0  00000+0 0  9992
2 66990   1.4700 286.9014 0002244 318.0620  42.8998  1.00275095  2276
TJS-23                  
1 67226U 25306A   26193.53233988  .00000026  00000+0  00000+0 0  9997
2 67226   5.5312 297.3541 0004982 192.6213 167.6210  1.00274777  2144
FENGYUN 4C              
1 67246U 25312A   26192.80511584 -.00000319  00000+0  00000+0 0  9992
2 67246   0.0404 180.2327 0000632  36.6436 135.6736  1.00270046  2022
SHIJIAN-29A (SJ-29A)    
1 67302U 25315A   26193.50790641 -.00000070  00000+0  00000+0 0  9993
2 67302   3.4597  94.5032 0004851  52.7567  39.1345  1.00272057  1876
SHIJIAN-29B (SJ-29B)    
1 67403U 25315C   26193.50790640 -.00000070  00000+0  00000+0 0  9994
2 67403   3.4587  94.4967 0004828  52.8738  39.0686  1.00272033  1947
ELEKTRO-L 5             
1 67756U 26028A   26192.98345017 -.00000094  00000+0  00000+0 0  9998
2 67756   0.2116 323.0520 0002042 176.0597 220.8974  1.00271978  1504
JAM-E JAM 1             
1 67757U 26028B   26193.21322213  .00000158  00000+0  00000+0 0  9999
2 67757   0.2122 311.3933 0001728 321.8798 127.6037  1.00272256  1372
ECHOSTAR 25             
1 68126U 26045A   26193.32733926  .00000000  00000+0  00000+0 0  9994
2 68126   0.0280  59.8250 0001554  62.9583 175.2881  1.00266096  1241
TJS-24                  
1 69235U 26116A   26193.63698859 -.00000231  00000+0  00000+0 0  9991
2 69235   0.0710  95.7002 0000365 129.4488  24.9941  1.00270424   489
